<?xml version="1.0" encoding="UTF-8"?>
<kml xmlns="http://www.opengis.net/kml/2.2">
<Document>
<name>Zeilenumbrueche</name>
<Placemark>
<name>Route</name>
<LineString>
<tessellate>1</tessellate>
<coordinates>
			8.492000,47.349600,0
			8.492600,47.350500,0
			8.493200,47.351400,0
			8.493800,47.352300,0
			8.494400,47.353200,0
			8.495000,47.354100,0
			8.495600,47.355000,0
			8.496200,47.355900,0
			8.496800,47.356800,0
			8.497400,47.357700,0
			8.498000,47.358600,0
			8.498600,47.359500,0
			8.499200,47.360400,0
			8.499800,47.361300,0
			8.500400,47.362200,0
			8.501000,47.363100,0
			8.501600,47.364000,0
			8.502200,47.364900,0
			8.502800,47.365800,0
			8.503400,47.366700,0
		</coordinates>
</LineString>
</Placemark>
</Document>
</kml>
